CCSDS_OMM_VERS,COMMENT,CREATION_DATE,ORIGINATOR,OBJECT_NAME,OBJECT_ID,CENTER_NAME,REF_FRAME,TIME_SYSTEM,MEAN_ELEMENT_THEORY,EPOCH,MEAN_MOTION,ECCENTRICITY,INCLINATION,RA_OF_ASC_NODE,ARG_OF_PERICENTER,MEAN_ANOMALY,EPHEMERIS_TYPE,CLASSIFICATION_TYPE,NORAD_CAT_ID,ELEMENT_SET_NO,REV_AT_EPOCH,BSTAR,MEAN_MOTION_DOT,MEAN_MOTION_DDOT,SEMIMAJOR_AXIS,PERIOD,APOAPSIS,PERIAPSIS,OBJECT_TYPE,RCS_SIZE,COUNTRY_CODE,LAUNCH_DATE,SITE,DECAY_DATE,FILE,GP_ID,TLE_LINE0,TLE_LINE1,TLE_LINE2
"2.0","GENERATED VIA SPACE-TRACK.ORG API","2020-05-02T22:26:09","18 SPCS","COSMOS 1818","1987-011A","EARTH","TEME","UTC","SGP4","2020-05-02T19:05:21.753024","14.31454835","0.00125280","65.0114","31.3077","268.8206","91.1443","0","U","17369","999","78900","-0.00000135450000","-0.00000104","0.0000000000000","7165.009","100.596","795.850","777.897","PAYLOAD","LARGE","CIS","1987-02-01","TTMTR","","2743012","153262196","0 COSMOS 1818","1 17369U 87011A   20123.79539066 -.00000104  00000-0 -13545-5 0  9996","2 17369  65.0114  31.3077 0012528 268.8206  91.1443 14.31454835789000"
"2.0","GENERATED VIA SPACE-TRACK.ORG API","2020-05-02T14:36:09","18 SPCS","IRIDIUM 136","2017-061H","EARTH","TEME","UTC","SGP4","2020-05-02T09:43:18.414336","14.34215655","0.00021940","86.4001","239.9088","106.6252","253.5184","0","U","42962","999","13423","0.00001397400000","0.00000059","0.0000000000000","7155.811","100.403","779.246","776.106","PAYLOAD","LARGE","US","2017-10-09","AFWTR","","2742843","153237953","0 IRIDIUM 136","1 42962U 17061H   20123.40507424  .00000059  00000-0  13974-4 0  9994","2 42962  86.4001 239.9088 0002194 106.6252 253.5184 14.34215655134238"
"2.0","GENERATED VIA SPACE-TRACK.ORG API","2020-05-02T17:37:01","18 SPCS","COSMOS 1818","1987-011A","EARTH","TEME","UTC","SGP4","2020-05-02T03:59:55.580064","14.31454815","0.00125280","65.0114","33.0683","268.7513","91.2136","0","U","17369","999","78863","-0.00000200650000","-0.00000106","0.0000000000000","7165.009","100.596","795.850","777.897","PAYLOAD","LARGE","CIS","1987-02-01","TTMTR","","2742959","153245233","0 COSMOS 1818","1 17369U 87011A   20123.16661551 -.00000106 +00000-0 -20065-5 0  9999","2 17369 065.0114 033.0683 0012528 268.7513 091.2136 14.31454815788638"
"2.0","GENERATED VIA SPACE-TRACK.ORG API","2020-05-02T01:20:52","18 SPCS","COSMOS 1818","1987-011A","EARTH","TEME","UTC","SGP4","2020-05-01T21:17:30.613632","14.31454810","0.00125320","65.0114","33.8508","268.7105","91.2544","0","U","17369","999","78859","-0.00000259660000","-0.00000107","0.0000000000000","7165.009","100.596","795.853","777.894","PAYLOAD","LARGE","CIS","1987-02-01","TTMTR","","2742554","153215704","0 COSMOS 1818","1 17369U 87011A   20122.88715988 -.00000107 +00000-0 -25966-5 0  9997","2 17369 065.0114 033.8508 0012532 268.7105 091.2544 14.31454810788597"
"2.0","GENERATED VIA SPACE-TRACK.ORG API","2020-05-02T01:20:52","18 SPCS","IRIDIUM 136","2017-061H","EARTH","TEME","UTC","SGP4","2020-05-01T20:19:34.349376","14.34215511","0.00021670","86.4001","240.1419","106.5985","253.5448","0","U","42962","999","13415","0.00000605060000","0.00000037","0.0000000000000","7155.811","100.403","779.227","776.125","PAYLOAD","LARGE","US","2017-10-09","AFWTR","","2742554","153229247","0 IRIDIUM 136","1 42962U 17061H   20122.84692534 +.00000037 +00000-0 +60506-5 0  9998","2 42962 086.4001 240.1419 0002167 106.5985 253.5448 14.34215511134157"
"2.0","GENERATED VIA SPACE-TRACK.ORG API","2020-05-01T06:26:09","18 SPCS","COSMOS 1818","1987-011A","EARTH","TEME","UTC","SGP4","2020-05-01T04:31:28.196256","14.31454819","0.00125390","65.0114","35.8070","268.6350","91.3298","0","U","17369","999","78877","-0.00000154880000","-0.00000104","0.0000000000000","7165.009","100.596","795.858","777.889","PAYLOAD","LARGE","CIS","1987-02-01","TTMTR","","2742132","153181626","0 COSMOS 1818","1 17369U 87011A   20122.18852079 -.00000104  00000-0 -15488-5 0  9998","2 17369  65.0114  35.8070 0012539 268.6350  91.3298 14.31454819788777"
"2.0","GENERATED VIA SPACE-TRACK.ORG API","2020-05-01T04:51:25","18 SPCS","IRIDIUM 136","2017-061H","EARTH","TEME","UTC","SGP4","2020-04-30T20:53:02.217984","14.34215548","0.00021230","86.3999","240.5498","106.4362","253.7068","0","U","42962","999","13401","0.00002710600000","0.00000096","0.0000000000000","7155.811","100.403","779.195","776.157","PAYLOAD","LARGE","US","2017-10-09","AFWTR","","2742088","153178436","0 IRIDIUM 136","1 42962U 17061H   20121.87016456 +.00000096 +00000-0 +27106-4 0  9996","2 42962 086.3999 240.5498 0002123 106.4362 253.7068 14.34215548134018"
"2.0","GENERATED VIA SPACE-TRACK.ORG API","2020-05-01T04:51:25","18 SPCS","COSMOS 1818","1987-011A","EARTH","TEME","UTC","SGP4","2020-04-30T20:08:26.979360","14.31454906","0.00125500","65.0130","36.7843","269.1494","90.8153","0","U","17369","999","78844","-0.00000057094000","-0.00000102","0.0000000000000","7165.008","100.596","795.865","777.881","PAYLOAD","LARGE","CIS","1987-02-01","TTMTR","","2742088","153164892","0 COSMOS 1818","1 17369U 87011A   20121.83920115 -.00000102 +00000-0 -57094-6 0  9994","2 17369 065.0130 036.7843 0012550 269.1494 090.8153 14.31454906788446"
"2.0","GENERATED VIA SPACE-TRACK.ORG API","2020-04-30T06:36:09","18 SPCS","COSMOS 1818","1987-011A","EARTH","TEME","UTC","SGP4","2020-04-30T03:22:24.559392","14.31454908","0.00125570","65.0130","38.7405","269.0955","90.8691","0","U","17369","999","78862","-0.00000142940000","-0.00000104","0.0000000000000","7165.008","100.596","795.870","777.876","PAYLOAD","LARGE","CIS","1987-02-01","TTMTR","","2741594","153129170","0 COSMOS 1818","1 17369U 87011A   20121.14056203 -.00000104  00000-0 -14294-5 0  9992","2 17369  65.0130  38.7405 0012557 269.0955  90.8691 14.31454908788629"
"2.0","GENERATED VIA SPACE-TRACK.ORG API","2020-04-30T17:34:29","18 SPCS","IRIDIUM 136","2017-061H","EARTH","TEME","UTC","SGP4","2020-04-30T00:47:26.102400","14.34215477","0.00020950","86.3998","240.8993","106.1849","253.9578","0","U","42962","999","13389","0.00001986900000","0.00000075","0.0000000000000","7155.811","100.403","779.175","776.177","PAYLOAD","LARGE","US","2017-10-09","AFWTR","","2741876","153153547","0 IRIDIUM 136","1 42962U 17061H   20121.03294100 +.00000075 +00000-0 +19869-4 0  9992","2 42962 086.3998 240.8993 0002095 106.1849 253.9578 14.34215477133899"
"2.0","GENERATED VIA SPACE-TRACK.ORG API","2020-04-30T04:00:12","18 SPCS","COSMOS 1818","1987-011A","EARTH","TEME","UTC","SGP4","2020-04-29T20:39:59.584320","14.31454976","0.00125610","65.0130","39.5230","269.0350","90.9296","0","U","17369","999","78830","-0.00000007003900","-0.00000100","0.0000000000000","7165.008","100.596","795.873","777.873","PAYLOAD","LARGE","CIS","1987-02-01","TTMTR","","2741555","153112499","0 COSMOS 1818","1 17369U 87011A   20120.86110630 -.00000100 +00000-0 -70039-7 0  9992","2 17369 065.0130 039.5230 0012561 269.0350 090.9296 14.31454976788300"
"2.0","GENERATED VIA SPACE-TRACK.ORG API","2020-04-30T04:00:12","18 SPCS","IRIDIUM 136","2017-061H","EARTH","TEME","UTC","SGP4","2020-04-29T18:05:34.040544","14.34217392","0.00017650","86.3980","241.0132","101.9910","258.1483","0","U","42962","999","13385","0.00002045400000","0.00000077","0.0000000000000","7155.805","100.403","778.933","776.407","PAYLOAD","LARGE","US","2017-10-09","AFWTR","","2741555","153126045","0 IRIDIUM 136","1 42962U 17061H   20120.75386621 +.00000077 +00000-0 +20454-4 0  9994","2 42962 086.3980 241.0132 0001765 101.9910 258.1483 14.34217392133859"
"2.0","GENERATED VIA SPACE-TRACK.ORG API","2020-04-29T14:36:09","18 SPCS","IRIDIUM 136","2017-061H","EARTH","TEME","UTC","SGP4","2020-04-29T09:43:14.015712","14.34217834","0.00019660","86.3978","241.1589","105.3247","254.8166","0","U","42962","999","13380","0.00002002400000","0.00000076","0.0000000000000","7155.803","100.403","779.075","776.262","PAYLOAD","LARGE","US","2017-10-09","AFWTR","","2741229","153081968","0 IRIDIUM 136","1 42962U 17061H   20120.40502333  .00000076  00000-0  20024-4 0  9998","2 42962  86.3978 241.1589 0001966 105.3247 254.8166 14.34217834133804"
"2.0","GENERATED VIA SPACE-TRACK.ORG API","2020-04-29T17:42:05","18 SPCS","COSMOS 1818","1987-011A","EARTH","TEME","UTC","SGP4","2020-04-29T03:53:57.169536","14.31454958","0.00125630","65.0130","41.4792","268.9600","91.0045","0","U","17369","999","78820","-0.00000066213000","-0.00000102","0.0000000000000","7165.008","100.596","795.875","777.872","PAYLOAD","LARGE","CIS","1987-02-01","TTMTR","","2741376","153089742","0 COSMOS 1818","1 17369U 87011A   20120.16246724 -.00000102 +00000-0 -66213-6 0  9999","2 17369 065.0130 041.4792 0012563 268.9600 091.0045 14.31454958788206"
"2.0","GENERATED VIA SPACE-TRACK.ORG API","2020-04-29T17:42:05","18 SPCS","IRIDIUM 136","2017-061H","EARTH","TEME","UTC","SGP4","2020-04-28T20:19:29.939520","14.34218118","0.00021030","86.3997","241.3946","106.7751","253.3676","0","U","42962","999","13372","0.00002086200000","0.00000078","0.0000000000000","7155.802","100.403","779.172","776.163","PAYLOAD","LARGE","US","2017-10-09","AFWTR","","2741376","153103288","0 IRIDIUM 136","1 42962U 17061H   20119.84687430 +.00000078 +00000-0 +20862-4 0  9998","2 42962 086.3997 241.3946 0002103 106.7751 253.3676 14.34218118133720"
"2.0","GENERATED VIA SPACE-TRACK.ORG API","2020-04-28T22:26:10","18 SPCS","COSMOS 1818","1987-011A","EARTH","TEME","UTC","SGP4","2020-04-28T19:30:55.960416","14.31454991","0.00125540","65.0129","42.4573","268.8944","91.0702","0","U","17369","999","78843","-0.00000043361000","-0.00000101","0.0000000000000","7165.008","100.596","795.868","777.878","PAYLOAD","LARGE","CIS","1987-02-01","TTMTR","","2740845","153053972","0 COSMOS 1818","1 17369U 87011A   20119.81314769 -.00000101  00000-0 -43361-6 0  9992","2 17369  65.0129  42.4573 0012554 268.8944  91.0702 14.31454991788434"
